JAM-E JAM 1             
1 67757U 26028B   26070.79413110  .00000156  00000+0  00000+0 0  9991
2 67757   0.4883 286.0915 0005729 134.3905  68.9226  1.00230940   143
KUIPER-00159            
1 67764U 26030A   26070.77952574  .00042997  00000+0  12147-2 0  9999
2 67764  51.8850 209.0891 0004560  44.6705 315.4648 15.35921923  5410
KUIPER-00160            
1 67765U 26030B   26070.71637262  .00038631  00000+0  10995-2 0  9997
2 67765  51.8821 209.4037 0005374  58.5766 301.5745 15.35735349  5408
KUIPER-00177            
1 67766U 26030C   26070.83335647  .00057994  00000+0  19358-2 0  9998
2 67766  51.8848 208.6987 0002422  14.0521 335.3054 15.30488334  5312
KUIPER-00178            
1 67767U 26030D   26070.78340354  .00039192  00000+0  11326-2 0  9991
2 67767  51.8850 209.1126 0009309  40.2083 319.9590 15.35222408  5419
KUIPER-00180            
1 67768U 26030E   26070.83335647  .00060110  00000+0  20187-2 0  9996
2 67768  51.8812 209.3934 0014715  74.7581 299.6321 15.30179174  2148
KUIPER-00197            
1 67769U 26030F   26070.70307561  .00039371  00000+0  10932-2 0  9999
2 67769  51.8848 209.3242 0001566  44.9817 315.1297 15.36506456  5402
KUIPER-00198            
1 67770U 26030G   26070.64419926  .00038409  00000+0  10772-2 0  9996
2 67770  51.8808 209.6726 0003558  43.7619 316.3649 15.36203521  5399
KUIPER-00199            
1 67771U 26030H   26070.80310293  .00030601  00000+0  90810-3 0  9990
2 67771  51.8813 209.2263 0010705  66.5037 293.7073 15.34496039  5415
KUIPER-00200            
1 67772U 26030J   26070.75689575  .00061221  00000+0  16507-2 0  9999
2 67772  51.8818 208.9343 0001216 303.2368  56.8502 15.37221664  5419
KUIPER-00203            
1 67773U 26030K   26070.83335647 -.01123338  00000+0 -76408-1 0  9993
2 67773  51.8902 210.1546 0011355  68.8328 241.0137 15.08778283  3983
KUIPER-00205            
1 67774U 26030L   26070.76874348  .00041017  00000+0  11365-2 0  9994
2 67774  51.8809 209.0087 0003294  20.2967 339.8150 15.36551345  5411
KUIPER-00208            
1 67775U 26030M   26070.75951089  .00042305  00000+0  13390-2 0  9993
2 67775  51.8837 209.6888 0015677  64.6530 295.6077 15.32229356  5400
KUIPER-00209            
1 67776U 26030N   26070.83861342  .00015354  00000+0  53379-3 0  9991
2 67776  51.8840 209.4640 0012524  67.2158 293.0147 15.29847068  5415
KUIPER-00213            
1 67777U 26030P   26070.75857012  .00031222  00000+0  97942-3 0  9998
2 67777  51.8818 209.6740 0015180  70.0403 290.2215 15.32669444  5408
KUIPER-00214            
1 67778U 26030Q   26070.69586845  .00043244  00000+0  11834-2 0  9997
2 67778  51.8862 209.2798 0000707 287.2686  72.8223 15.36917053  5400
KUIPER-00215            
1 67779U 26030R   26070.73596723  .00032228  00000+0  95286-3 0  9993
2 67779  51.8834 209.5383 0010520  66.2297 293.9791 15.34588543  5402
