[{"OBJECT_NAME":"JAM-E JAM 1","OBJECT_ID":"2026-028B","EPOCH":"2026-03-11T19:03:32.927040","MEAN_MOTION":1.0023094,"ECCENTRICITY":0.0005729,"INCLINATION":0.4883,"RA_OF_ASC_NODE":286.0915,"ARG_OF_PERICENTER":134.3905,"MEAN_ANOMALY":68.9226,"EPHEMERIS_TYPE":0,"CLASSIFICATION_TYPE":"U","NORAD_CAT_ID":67757,"ELEMENT_SET_NO":999,"REV_AT_EPOCH":14,"BSTAR":0,"MEAN_MOTION_DOT":1.56e-6,"MEAN_MOTION_DDOT":0},{"OBJECT_NAME":"KUIPER-00159","OBJECT_ID":"2026-030A","EPOCH":"2026-03-11T18:42:31.023936","MEAN_MOTION":15.35921923,"ECCENTRICITY":0.000456,"INCLINATION":51.885,"RA_OF_ASC_NODE":209.0891,"ARG_OF_PERICENTER":44.6705,"MEAN_ANOMALY":315.4648,"EPHEMERIS_TYPE":0,"CLASSIFICATION_TYPE":"U","NORAD_CAT_ID":67764,"ELEMENT_SET_NO":999,"REV_AT_EPOCH":541,"BSTAR":0.0012147,"MEAN_MOTION_DOT":0.00042997,"MEAN_MOTION_DDOT":0},{"OBJECT_NAME":"KUIPER-00160","OBJECT_ID":"2026-030B","EPOCH":"2026-03-11T17:11:34.594368","MEAN_MOTION":15.35735349,"ECCENTRICITY":0.0005374,"INCLINATION":51.8821,"RA_OF_ASC_NODE":209.4037,"ARG_OF_PERICENTER":58.5766,"MEAN_ANOMALY":301.5745,"EPHEMERIS_TYPE":0,"CLASSIFICATION_TYPE":"U","NORAD_CAT_ID":67765,"ELEMENT_SET_NO":999,"REV_AT_EPOCH":540,"BSTAR":0.0010995,"MEAN_MOTION_DOT":0.00038631,"MEAN_MOTION_DDOT":0},{"OBJECT_NAME":"KUIPER-00177","OBJECT_ID":"2026-030C","EPOCH":"2026-03-11T20:00:01.999008","MEAN_MOTION":15.30488334,"ECCENTRICITY":0.0002422,"INCLINATION":51.8848,"RA_OF_ASC_NODE":208.6987,"ARG_OF_PERICENTER":14.0521,"MEAN_ANOMALY":335.3054,"EPHEMERIS_TYPE":0,"CLASSIFICATION_TYPE":"U","NORAD_CAT_ID":67766,"ELEMENT_SET_NO":999,"REV_AT_EPOCH":531,"BSTAR":0.0019358,"MEAN_MOTION_DOT":0.00057994,"MEAN_MOTION_DDOT":0},{"OBJECT_NAME":"KUIPER-00178","OBJECT_ID":"2026-030D","EPOCH":"2026-03-11T18:48:06.065856","MEAN_MOTION":15.35222408,"ECCENTRICITY":0.0009309,"INCLINATION":51.885,"RA_OF_ASC_NODE":209.1126,"ARG_OF_PERICENTER":40.2083,"MEAN_ANOMALY":319.959,"EPHEMERIS_TYPE":0,"CLASSIFICATION_TYPE":"U","NORAD_CAT_ID":67767,"ELEMENT_SET_NO":999,"REV_AT_EPOCH":541,"BSTAR":0.0011326,"MEAN_MOTION_DOT":0.00039192,"MEAN_MOTION_DDOT":0},{"OBJECT_NAME":"KUIPER-00180","OBJECT_ID":"2026-030E","EPOCH":"2026-03-11T20:00:01.999008","MEAN_MOTION":15.30179174,"ECCENTRICITY":0.0014715,"INCLINATION":51.8812,"RA_OF_ASC_NODE":209.3934,"ARG_OF_PERICENTER":74.7581,"MEAN_ANOMALY":299.6321,"EPHEMERIS_TYPE":0,"CLASSIFICATION_TYPE":"U","NORAD_CAT_ID":67768,"ELEMENT_SET_NO":999,"REV_AT_EPOCH":214,"BSTAR":0.0020187,"MEAN_MOTION_DOT":0.0006011,"MEAN_MOTION_DDOT":0},{"OBJECT_NAME":"KUIPER-00197","OBJECT_ID":"2026-030F","EPOCH":"2026-03-11T16:52:25.732704","MEAN_MOTION":15.36506456,"ECCENTRICITY":0.0001566,"INCLINATION":51.8848,"RA_OF_ASC_NODE":209.3242,"ARG_OF_PERICENTER":44.9817,"MEAN_ANOMALY":315.1297,"EPHEMERIS_TYPE":0,"CLASSIFICATION_TYPE":"U","NORAD_CAT_ID":67769,"ELEMENT_SET_NO":999,"REV_AT_EPOCH":540,"BSTAR":0.0010932,"MEAN_MOTION_DOT":0.00039371,"MEAN_MOTION_DDOT":0},{"OBJECT_NAME":"KUIPER-00198","OBJECT_ID":"2026-030G","EPOCH":"2026-03-11T15:27:38.816064","MEAN_MOTION":15.36203521,"ECCENTRICITY":0.0003558,"INCLINATION":51.8808,"RA_OF_ASC_NODE":209.6726,"ARG_OF_PERICENTER":43.7619,"MEAN_ANOMALY":316.3649,"EPHEMERIS_TYPE":0,"CLASSIFICATION_TYPE":"U","NORAD_CAT_ID":67770,"ELEMENT_SET_NO":999,"REV_AT_EPOCH":539,"BSTAR":0.0010772,"MEAN_MOTION_DOT":0.00038409,"MEAN_MOTION_DDOT":0},{"OBJECT_NAME":"KUIPER-00199","OBJECT_ID":"2026-030H","EPOCH":"2026-03-11T19:16:28.093152","MEAN_MOTION":15.34496039,"ECCENTRICITY":0.0010705,"INCLINATION":51.8813,"RA_OF_ASC_NODE":209.2263,"ARG_OF_PERICENTER":66.5037,"MEAN_ANOMALY":293.7073,"EPHEMERIS_TYPE":0,"CLASSIFICATION_TYPE":"U","NORAD_CAT_ID":67771,"ELEMENT_SET_NO":999,"REV_AT_EPOCH":541,"BSTAR":0.0009081,"MEAN_MOTION_DOT":0.00030601,"MEAN_MOTION_DDOT":0},{"OBJECT_NAME":"KUIPER-00200","OBJECT_ID":"2026-030J","EPOCH":"2026-03-11T18:09:55.792800","MEAN_MOTION":15.37221664,"ECCENTRICITY":0.0001216,"INCLINATION":51.8818,"RA_OF_ASC_NODE":208.9343,"ARG_OF_PERICENTER":303.2368,"MEAN_ANOMALY":56.8502,"EPHEMERIS_TYPE":0,"CLASSIFICATION_TYPE":"U","NORAD_CAT_ID":67772,"ELEMENT_SET_NO":999,"REV_AT_EPOCH":541,"BSTAR":0.0016507,"MEAN_MOTION_DOT":0.00061221,"MEAN_MOTION_DDOT":0},{"OBJECT_NAME":"KUIPER-00203","OBJECT_ID":"2026-030K","EPOCH":"2026-03-11T20:00:01.999008","MEAN_MOTION":15.08778283,"ECCENTRICITY":0.0011355,"INCLINATION":51.8902,"RA_OF_ASC_NODE":210.1546,"ARG_OF_PERICENTER":68.8328,"MEAN_ANOMALY":241.0137,"EPHEMERIS_TYPE":0,"CLASSIFICATION_TYPE":"U","NORAD_CAT_ID":67773,"ELEMENT_SET_NO":999,"REV_AT_EPOCH":398,"BSTAR":-0.076408,"MEAN_MOTION_DOT":-0.01123338,"MEAN_MOTION_DDOT":0},{"OBJECT_NAME":"KUIPER-00205","OBJECT_ID":"2026-030L","EPOCH":"2026-03-11T18:26:59.436672","MEAN_MOTION":15.36551345,"ECCENTRICITY":0.0003294,"INCLINATION":51.8809,"RA_OF_ASC_NODE":209.0087,"ARG_OF_PERICENTER":20.2967,"MEAN_ANOMALY":339.815,"EPHEMERIS_TYPE":0,"CLASSIFICATION_TYPE":"U","NORAD_CAT_ID":67774,"ELEMENT_SET_NO":999,"REV_AT_EPOCH":541,"BSTAR":0.0011365,"MEAN_MOTION_DOT":0.00041017,"MEAN_MOTION_DDOT":0},{"OBJECT_NAME":"KUIPER-00208","OBJECT_ID":"2026-030M","EPOCH":"2026-03-11T18:13:41.740896","MEAN_MOTION":15.32229356,"ECCENTRICITY":0.0015677,"INCLINATION":51.8837,"RA_OF_ASC_NODE":209.6888,"ARG_OF_PERICENTER":64.653,"MEAN_ANOMALY":295.6077,"EPHEMERIS_TYPE":0,"CLASSIFICATION_TYPE":"U","NORAD_CAT_ID":67775,"ELEMENT_SET_NO":999,"REV_AT_EPOCH":540,"BSTAR":0.001339,"MEAN_MOTION_DOT":0.00042305,"MEAN_MOTION_DDOT":0},{"OBJECT_NAME":"KUIPER-00209","OBJECT_ID":"2026-030N","EPOCH":"2026-03-11T20:07:36.199488","MEAN_MOTION":15.29847068,"ECCENTRICITY":0.0012524,"INCLINATION":51.884,"RA_OF_ASC_NODE":209.464,"ARG_OF_PERICENTER":67.2158,"MEAN_ANOMALY":293.0147,"EPHEMERIS_TYPE":0,"CLASSIFICATION_TYPE":"U","NORAD_CAT_ID":67776,"ELEMENT_SET_NO":999,"REV_AT_EPOCH":541,"BSTAR":0.00053379,"MEAN_MOTION_DOT":0.00015354,"MEAN_MOTION_DDOT":0},{"OBJECT_NAME":"KUIPER-00213","OBJECT_ID":"2026-030P","EPOCH":"2026-03-11T18:12:20.458368","MEAN_MOTION":15.32669444,"ECCENTRICITY":0.001518,"INCLINATION":51.8818,"RA_OF_ASC_NODE":209.674,"ARG_OF_PERICENTER":70.0403,"MEAN_ANOMALY":290.2215,"EPHEMERIS_TYPE":0,"CLASSIFICATION_TYPE":"U","NORAD_CAT_ID":67777,"ELEMENT_SET_NO":999,"REV_AT_EPOCH":540,"BSTAR":0.00097942,"MEAN_MOTION_DOT":0.00031222,"MEAN_MOTION_DDOT":0},{"OBJECT_NAME":"KUIPER-00214","OBJECT_ID":"2026-030Q","EPOCH":"2026-03-11T16:42:03.034080","MEAN_MOTION":15.36917053,"ECCENTRICITY":7.07e-5,"INCLINATION":51.8862,"RA_OF_ASC_NODE":209.2798,"ARG_OF_PERICENTER":287.2686,"MEAN_ANOMALY":72.8223,"EPHEMERIS_TYPE":0,"CLASSIFICATION_TYPE":"U","NORAD_CAT_ID":67778,"ELEMENT_SET_NO":999,"REV_AT_EPOCH":540,"BSTAR":0.0011834,"MEAN_MOTION_DOT":0.00043244,"MEAN_MOTION_DDOT":0},{"OBJECT_NAME":"KUIPER-00215","OBJECT_ID":"2026-030R","EPOCH":"2026-03-11T17:39:47.568672","MEAN_MOTION":15.34588543,"ECCENTRICITY":0.001052,"INCLINATION":51.8834,"RA_OF_ASC_NODE":209.5383,"ARG_OF_PERICENTER":66.2297,"MEAN_ANOMALY":293.9791,"EPHEMERIS_TYPE":0,"CLASSIFICATION_TYPE":"U","NORAD_CAT_ID":67779,"ELEMENT_SET_NO":999,"REV_AT_EPOCH":540,"BSTAR":0.00095286,"MEAN_MOTION_DOT":0.00032228,"MEAN_MOTION_DDOT":0}]
